start=new Date('2022-09-08T00:00:00.000Z').valueOf();
sats=[{"OBJECT_TYPE":"PAYLOAD","BSTAR":"0.00002454500000","OBJECT_ID":"2021-040J","INCLINATION":"53.0559","EPOCH":"2022-09-07T20:32:27.161088","CENTER_NAME":"EARTH","MEAN_ELEMENT_THEORY":"SGP4","MEAN_ANOMALY":"280.3272","REF_FRAME":"TEME","FILE":"3563022","TLE_LINE1":"1 48436U 21040J   22250.85586992  .00000084  00000-0  24545-4 0  9991","ARG_OF_PERICENTER":"79.7888","EPHEMERIS_TYPE":"0","OBJECT_NAME":"STARLINK-2639","RA_OF_ASC_NODE":"162.5333","SEMIMAJOR_AXIS":"6925.385","REV_AT_EPOCH":"7387","TIME_SYSTEM":"UTC","MEAN_MOTION":"15.06387956","ECCENTRICITY":"0.00015130","LAUNCH_DATE":"2021-05-09","TLE_LINE2":"2 48436  53.0559 162.5333 0001513  79.7888 280.3272 15.06387956 73873","RCS_SIZE":"LARGE","DECAY_DATE":null,"CLASSIFICATION_TYPE":"U","GP_ID":"212009394","MEAN_MOTION_DOT":"0.00000084","NORAD_CAT_ID":"48436","PERIAPSIS":"546.203","MEAN_MOTION_DDOT":"0.0000000000000","SITE":"AFETR","PERIOD":"95.593","ELEMENT_SET_NO":"999","COUNTRY_CODE":"US","APOAPSIS":"548.298"},{"TLE_LINE1":"1 48437U 21040K   22250.24308261 -.00001856  00000-0 -10579-3 0  9997","FILE":"3562217","MEAN_ELEMENT_THEORY":"SGP4","CENTER_NAME":"EARTH","EPOCH":"2022-09-07T05:50:02.337504","REF_FRAME":"TEME","MEAN_ANOMALY":"289.9840","BSTAR":"-0.00010579000000","INCLINATION":"53.0568","OBJECT_ID":"2021-040K","OBJECT_TYPE":"PAYLOAD","MEAN_MOTION_DDOT":"0.0000000000000","PERIAPSIS":"546.143","NORAD_CAT_ID":"48437","COUNTRY_CODE":"US","ELEMENT_SET_NO":"999","APOAPSIS":"548.357","PERIOD":"95.593","SITE":"AFETR","RCS_SIZE":"LARGE","TLE_LINE2":"2 48437  53.0568 175.2808 0001599  70.1321 289.9840 15.06388089 73642","DECAY_DATE":null,"LAUNCH_DATE":"2021-05-09","MEAN_MOTION_DOT":"-0.00001856","GP_ID":"211964886","CLASSIFICATION_TYPE":"U","RA_OF_ASC_NODE":"175.2808","SEMIMAJOR_AXIS":"6925.385","OBJECT_NAME":"STARLINK-2642","ECCENTRICITY":"0.00015990","MEAN_MOTION":"15.06388089","REV_AT_EPOCH":"7364","TIME_SYSTEM":"UTC","ARG_OF_PERICENTER":"70.1321","EPHEMERIS_TYPE":"0"},{"TLE_LINE1":"1 48438U 21040L   22250.18871885 -.00003080  00000-0 -18806-3 0  9990","FILE":"3562217","MEAN_ELEMENT_THEORY":"SGP4","EPOCH":"2022-09-07T04:31:45.308640","CENTER_NAME":"EARTH","REF_FRAME":"TEME","MEAN_ANOMALY":"285.8514","BSTAR":"-0.00018806000000","OBJECT_ID":"2021-040L","INCLINATION":"53.0545","OBJECT_TYPE":"PAYLOAD","PERIAPSIS":"546.202","NORAD_CAT_ID":"48438","MEAN_MOTION_DDOT":"0.0000000000000","SITE":"AFETR","PERIOD":"95.593","COUNTRY_CODE":"US","APOAPSIS":"548.346","ELEMENT_SET_NO":"999","TLE_LINE2":"2 48438  53.0545 165.5179 0001548  74.2646 285.8514 15.06380167 73776","DECAY_DATE":null,"RCS_SIZE":"LARGE","LAUNCH_DATE":"2021-05-09","GP_ID":"211963634","MEAN_MOTION_DOT":"-0.00003080","CLASSIFICATION_TYPE":"U","OBJECT_NAME":"STARLINK-2640","RA_OF_ASC_NODE":"165.5179","SEMIMAJOR_AXIS":"6925.409","ECCENTRICITY":"0.00015480","MEAN_MOTION":"15.06380167","TIME_SYSTEM":"UTC","REV_AT_EPOCH":"7377","ARG_OF_PERICENTER":"74.2646","EPHEMERIS_TYPE":"0"},{"INCLINATION":"53.0525","OBJECT_ID":"2021-040M","BSTAR":"-0.00014087000000","OBJECT_TYPE":"PAYLOAD","TLE_LINE1":"1 48439U 21040M   22250.18502870 -.00002378  00000-0 -14087-3 0  9992","FILE":"3562217","REF_FRAME":"TEME","MEAN_ANOMALY":"295.0558","MEAN_ELEMENT_THEORY":"SGP4","CENTER_NAME":"EARTH","EPOCH":"2022-09-07T04:26:26.479680","MEAN_MOTION":"15.06385186","ECCENTRICITY":"0.00012980","REV_AT_EPOCH":"7377","TIME_SYSTEM":"UTC","SEMIMAJOR_AXIS":"6925.394","RA_OF_ASC_NODE":"165.5371","OBJECT_NAME":"STARLINK-2583","EPHEMERIS_TYPE":"0","ARG_OF_PERICENTER":"65.0566","ELEMENT_SET_NO":"999","COUNTRY_CODE":"US","APOAPSIS":"548.158","SITE":"AFETR","PERIOD":"95.593","MEAN_MOTION_DDOT":"0.0000000000000","PERIAPSIS":"546.360","NORAD_CAT_ID":"48439","GP_ID":"211963884","MEAN_MOTION_DOT":"-0.00002378","CLASSIFICATION_TYPE":"U","TLE_LINE2":"2 48439  53.0525 165.5371 0001298  65.0566 295.0558 15.06385186 73777","RCS_SIZE":"MEDIUM","DECAY_DATE":null,"LAUNCH_DATE":"2021-05-09"},{"TLE_LINE2":"2 48440  53.0541 165.5538 0001679  76.2104 283.9072 15.06390327 73777","RCS_SIZE":"LARGE","DECAY_DATE":null,"LAUNCH_DATE":"2021-05-09","GP_ID":"211965136","MEAN_MOTION_DOT":"-0.00001105","CLASSIFICATION_TYPE":"U","MEAN_MOTION_DDOT":"0.0000000000000","NORAD_CAT_ID":"48440","PERIAPSIS":"546.080","ELEMENT_SET_NO":"999","COUNTRY_CODE":"US","APOAPSIS":"548.406","PERIOD":"95.593","SITE":"AFETR","ARG_OF_PERICENTER":"76.2104","EPHEMERIS_TYPE":"0","SEMIMAJOR_AXIS":"6925.378","RA_OF_ASC_NODE":"165.5538","OBJECT_NAME":"STARLINK-2682","ECCENTRICITY":"0.00016790","MEAN_MOTION":"15.06390327","TIME_SYSTEM":"UTC","REV_AT_EPOCH":"7377","MEAN_ELEMENT_THEORY":"SGP4","CENTER_NAME":"EARTH","EPOCH":"2022-09-07T04:21:07.672320","REF_FRAME":"TEME","MEAN_ANOMALY":"283.9072","TLE_LINE1":"1 48440U 21040N   22250.18133880 -.00001105  00000-0 -55304-4 0  9990","FILE":"3562217","OBJECT_TYPE":"PAYLOAD","BSTAR":"-0.00005530400000","INCLINATION":"53.0541","OBJECT_ID":"2021-040N"},{"EPHEMERIS_TYPE":"0","ARG_OF_PERICENTER":"68.3660","REV_AT_EPOCH":"7378","TIME_SYSTEM":"UTC","ECCENTRICITY":"0.00015970","MEAN_MOTION":"15.06382103","SEMIMAJOR_AXIS":"6925.403","RA_OF_ASC_NODE":"165.2672","OBJECT_NAME":"STARLINK-2702","CLASSIFICATION_TYPE":"U","GP_ID":"211965387","MEAN_MOTION_DOT":"-0.00002207","LAUNCH_DATE":"2021-05-09","TLE_LINE2":"2 48441  53.0526 165.2672 0001597  68.3660 291.7499 15.06382103 73789","DECAY_DATE":null,"RCS_SIZE":"LARGE","COUNTRY_CODE":"US","ELEMENT_SET_NO":"999","APOAPSIS":"548.374","PERIOD":"95.593","SITE":"AFETR","MEAN_MOTION_DDOT":"0.0000000000000","NORAD_CAT_ID":"48441","PERIAPSIS":"546.162","OBJECT_TYPE":"PAYLOAD","INCLINATION":"53.0526","OBJECT_ID":"2021-040P","BSTAR":"-0.00012936000000","MEAN_ANOMALY":"291.7499","REF_FRAME":"TEME","EPOCH":"2022-09-07T05:51:21.637152","CENTER_NAME":"EARTH","MEAN_ELEMENT_THEORY":"SGP4","FILE":"3562217","TLE_LINE1":"1 48441U 21040P   22250.24400043 -.00002207  00000-0 -12936-3 0  9993"},{"ELEMENT_SET_NO":"999","COUNTRY_CODE":"US","APOAPSIS":"548.324","SITE":"AFETR","PERIOD":"95.593","MEAN_MOTION_DDOT":"0.0000000000000","NORAD_CAT_ID":"48442","PERIAPSIS":"546.208","GP_ID":"211964135","MEAN_MOTION_DOT":"-0.00003740","CLASSIFICATION_TYPE":"U","RCS_SIZE":"LARGE","TLE_LINE2":"2 48442  53.0554 166.1932 0001528  75.7743 284.3415 15.06382924 73752","DECAY_DATE":null,"LAUNCH_DATE":"2021-05-09","ECCENTRICITY":"0.00015280","MEAN_MOTION":"15.06382924","REV_AT_EPOCH":"7375","TIME_SYSTEM":"UTC","SEMIMAJOR_AXIS":"6925.401","RA_OF_ASC_NODE":"166.1932","OBJECT_NAME":"STARLINK-2644","EPHEMERIS_TYPE":"0","ARG_OF_PERICENTER":"75.7743","TLE_LINE1":"1 48442U 21040Q   22250.04127245 -.00003740  00000-0 -23242-3 0  9997","FILE":"3562217","REF_FRAME":"TEME","MEAN_ANOMALY":"284.3415","MEAN_ELEMENT_THEORY":"SGP4","EPOCH":"2022-09-07T00:59:25.939680","CENTER_NAME":"EARTH","INCLINATION":"53.0554","OBJECT_ID":"2021-040Q","BSTAR":"-0.00023242000000","OBJECT_TYPE":"PAYLOAD"},{"BSTAR":"-0.00008417900000","OBJECT_ID":"2021-040R","INCLINATION":"53.0538","OBJECT_TYPE":"PAYLOAD","FILE":"3562217","TLE_LINE1":"1 48443U 21040R   22250.23662626 -.00001535  00000-0 -84179-4 0  9993","EPOCH":"2022-09-07T05:40:44.508864","CENTER_NAME":"EARTH","MEAN_ELEMENT_THEORY":"SGP4","MEAN_ANOMALY":"270.8336","REF_FRAME":"TEME","OBJECT_NAME":"STARLINK-2663","SEMIMAJOR_AXIS":"6925.383","RA_OF_ASC_NODE":"165.3184","REV_AT_EPOCH":"7378","TIME_SYSTEM":"UTC","MEAN_MOTION":"15.06388769","ECCENTRICITY":"0.00015880","ARG_OF_PERICENTER":"89.2835","EPHEMERIS_TYPE":"0","NORAD_CAT_ID":"48443","PERIAPSIS":"546.148","MEAN_MOTION_DDOT":"0.0000000000000","SITE":"AFETR","PERIOD":"95.593","ELEMENT_SET_NO":"999","COUNTRY_CODE":"US","APOAPSIS":"548.348","LAUNCH_DATE":"2021-05-09","TLE_LINE2":"2 48443  53.0538 165.3184 0001588  89.2835 270.8336 15.06388769 73781","RCS_SIZE":"LARGE","DECAY_DATE":null,"CLASSIFICATION_TYPE":"U","MEAN_MOTION_DOT":"-0.00001535","GP_ID":"211964385"},{"MEAN_ANOMALY":"275.8396","REF_FRAME":"TEME","CENTER_NAME":"EARTH","EPOCH":"2022-09-07T19:55:17.025024","MEAN_ELEMENT_THEORY":"SGP4","FILE":"3563022","TLE_LINE1":"1 48444U 21040S   22250.83005816 -.00000283  00000-0 -11111-6 0  9999","OBJECT_TYPE":"PAYLOAD","OBJECT_ID":"2021-040S","INCLINATION":"53.0545","BSTAR":"-0.00000011111000","CLASSIFICATION_TYPE":"U","MEAN_MOTION_DOT":"-0.00000283","GP_ID":"212009395","LAUNCH_DATE":"2021-05-09","TLE_LINE2":"2 48444  53.0545 162.6488 0001483  84.2762 275.8396 15.06403199 73871","RCS_SIZE":"LARGE","DECAY_DATE":null,"PERIOD":"95.592","SITE":"AFETR","COUNTRY_CODE":"US","ELEMENT_SET_NO":"999","APOAPSIS":"548.231","PERIAPSIS":"546.177","NORAD_CAT_ID":"48444","MEAN_MOTION_DDOT":"0.0000000000000","EPHEMERIS_TYPE":"0","ARG_OF_PERICENTER":"84.2762","TIME_SYSTEM":"UTC","REV_AT_EPOCH":"7387","MEAN_MOTION":"15.06403199","ECCENTRICITY":"0.00014830","OBJECT_NAME":"STARLINK-2645","RA_OF_ASC_NODE":"162.6488","SEMIMAJOR_AXIS":"6925.339"},{"OBJECT_NAME":"STARLINK-2634","SEMIMAJOR_AXIS":"6925.392","RA_OF_ASC_NODE":"165.6473","TIME_SYSTEM":"UTC","REV_AT_EPOCH":"7377","MEAN_MOTION":"15.06385742","ECCENTRICITY":"0.00017390","ARG_OF_PERICENTER":"69.0077","EPHEMERIS_TYPE":"0","PERIAPSIS":"546.053","NORAD_CAT_ID":"48445","MEAN_MOTION_DDOT":"0.0000000000000","PERIOD":"95.593","SITE":"AFETR","APOAPSIS":"548.462","COUNTRY_CODE":"US","ELEMENT_SET_NO":"999","LAUNCH_DATE":"2021-05-09","RCS_SIZE":"LARGE","TLE_LINE2":"2 48445  53.0537 165.6473 0001739  69.0077 291.1098 15.06385742 73776","DECAY_DATE":null,"CLASSIFICATION_TYPE":"U","MEAN_MOTION_DOT":"-0.00003670","GP_ID":"211964887","BSTAR":"-0.00022771000000","OBJECT_ID":"2021-040T","INCLINATION":"53.0537","OBJECT_TYPE":"PAYLOAD","FILE":"3562217","TLE_LINE1":"1 48445U 21040T   22250.16293097 -.00003670  00000-0 -22771-3 0  9990","EPOCH":"2022-09-07T03:54:37.235808","CENTER_NAME":"EARTH","MEAN_ELEMENT_THEORY":"SGP4","MEAN_ANOMALY":"291.1098","REF_FRAME":"TEME"}];
